[
  {
    "script_address_id": 1,
    "user_id": 1,
    "recipient_name": "廖淑華",
    "phone": "0967-651-481",
    "city": "桃園市",
    "district": "中壢區",
    "postal_code": "320",
    "address_line1": "長春街3段4號",
    "address_line2": null,
    "is_default": true
  },
  {
    "script_address_id": 2,
    "user_id": 2,
    "recipient_name": "李素貞",
    "phone": "0964-767-281",
    "city": "臺中市",
    "district": "西屯區",
    "postal_code": "407",
    "address_line1": "頂福州路25號",
    "address_line2": null,
    "is_default": true
  },
  {
    "script_address_id": 3,
    "user_id": 3,
    "recipient_name": "林宇軒",
    "phone": "0910-611-155",
    "city": "高雄市",
    "district": "左營區",
    "postal_code": "813",
    "address_line1": "五福街995號",
    "address_line2": null,
    "is_default": true
  },
  {
    "script_address_id": 4,
    "user_id": 3,
    "recipient_name": "林宇軒",
    "phone": "0910-611-155",
    "city": "臺南市",
    "district": "東區",
    "postal_code": "701",
    "address_line1": "五福巷4段949號",
    "address_line2": null,
    "is_default": false
  },
  {
    "script_address_id": 5,
    "user_id": 4,
    "recipient_name": "江麗華",
    "phone": "0968-465-445",
    "city": "臺北市",
    "district": "大安區",
    "postal_code": "106",
    "address_line1": "永安街37號",
    "address_line2": null,
    "is_default": true
  },
  {
    "script_address_id": 6,
    "user_id": 5,
    "recipient_name": "蔡秀玉",
    "phone": "0919-654-320",
    "city": "新北市",
    "district": "淡水區",
    "postal_code": "251",
    "address_line1": "新北投街3段56號",
    "address_line2": null,
    "is_default": true
  },
  {
    "script_address_id": 7,
    "user_id": 5,
    "recipient_name": "蔡秀玉",
    "phone": "0919-654-320",
    "city": "新北市",
    "district": "板橋區",
    "postal_code": "220",
    "address_line1": "景美路5段935號",
    "address_line2": null,
    "is_default": false
  },
  {
    "script_address_id": 8,
    "user_id": 5,
    "recipient_name": "蔡秀玉",
    "phone": "0919-654-320",
    "city": "臺中市",
    "district": "西屯區",
    "postal_code": "407",
    "address_line1": "自由街3段1號",
    "address_line2": null,
    "is_default": false
  },
  {
    "script_address_id": 9,
    "user_id": 6,
    "recipient_name": "劉玉梅",
    "phone": "0920-377-267",
    "city": "高雄市",
    "district": "左營區",
    "postal_code": "813",
    "address_line1": "大坪巷7段434號",
    "address_line2": null,
    "is_default": true
  },
  {
    "script_address_id": 10,
    "user_id": 6,
    "recipient_name": "劉玉梅",
    "phone": "0920-377-267",
    "city": "桃園市",
    "district": "桃園區",
    "postal_code": "330",
    "address_line1": "紅樹林路285號",
    "address_line2": null,
    "is_default": false
  },
  {
    "script_address_id": 11,
    "user_id": 6,
    "recipient_name": "劉玉梅",
    "phone": "0920-377-267",
    "city": "臺北市",
    "district": "大安區",
    "postal_code": "106",
    "address_line1": "中華街19號",
    "address_line2": null,
    "is_default": false
  },
  {
    "script_address_id": 12,
    "user_id": 7,
    "recipient_name": "何麗玉",
    "phone": "0989-476-117",
    "city": "臺北市",
    "district": "大安區",
    "postal_code": "106",
    "address_line1": "忠孝巷6號",
    "address_line2": null,
    "is_default": true
  },
  {
    "script_address_id": 13,
    "user_id": 7,
    "recipient_name": "何麗玉",
    "phone": "0989-476-117",
    "city": "新北市",
    "district": "淡水區",
    "postal_code": "251",
    "address_line1": "紅樹林路9段599號",
    "address_line2": null,
    "is_default": false
  },
  {
    "script_address_id": 14,
    "user_id": 8,
    "recipient_name": "吳俊廷",
    "phone": "0958-536-447",
    "city": "桃園市",
    "district": "桃園區",
    "postal_code": "330",
    "address_line1": "劍潭巷2段9號",
    "address_line2": null,
    "is_default": true
  },
  {
    "script_address_id": 15,
    "user_id": 9,
    "recipient_name": "楊建成",
    "phone": "0920-753-155",
    "city": "臺南市",
    "district": "安平區",
    "postal_code": "708",
    "address_line1": "太平街67號",
    "address_line2": null,
    "is_default": true
  },
  {
    "script_address_id": 16,
    "user_id": 10,
    "recipient_name": "王雅慧",
    "phone": "0959-171-423",
    "city": "臺北市",
    "district": "大安區",
    "postal_code": "106",
    "address_line1": "大橋頭街9號",
    "address_line2": null,
    "is_default": true
  },
  {
    "script_address_id": 17,
    "user_id": 10,
    "recipient_name": "王雅慧",
    "phone": "0959-171-423",
    "city": "彰化縣",
    "district": "員林市",
    "postal_code": "510",
    "address_line1": "學府巷62號",
    "address_line2": null,
    "is_default": false
  },
  {
    "script_address_id": 18,
    "user_id": 10,
    "recipient_name": "王雅慧",
    "phone": "0959-171-423",
    "city": "臺中市",
    "district": "西屯區",
    "postal_code": "407",
    "address_line1": "自強路795號",
    "address_line2": null,
    "is_default": false
  },
  {
    "script_address_id": 19,
    "user_id": 11,
    "recipient_name": "蘇秀蘭",
    "phone": "0906-342-763",
    "city": "臺中市",
    "district": "西屯區",
    "postal_code": "407",
    "address_line1": "自由路4段13號",
    "address_line2": null,
    "is_default": true
  },
  {
    "script_address_id": 20,
    "user_id": 11,
    "recipient_name": "蘇秀蘭",
    "phone": "0906-342-763",
    "city": "新北市",
    "district": "永和區",
    "postal_code": "234",
    "address_line1": "太平路3段106號",
    "address_line2": null,
    "is_default": false
  },
  {
    "script_address_id": 21,
    "user_id": 11,
    "recipient_name": "蘇秀蘭",
    "phone": "0906-342-763",
    "city": "臺北市",
    "district": "士林區",
    "postal_code": "111",
    "address_line1": "土城巷7段79號",
    "address_line2": null,
    "is_default": false
  },
  {
    "script_address_id": 22,
    "user_id": 12,
    "recipient_name": "陳建興",
    "phone": "0922-518-251",
    "city": "高雄市",
    "district": "苓雅區",
    "postal_code": "802",
    "address_line1": "新莊巷7段34號",
    "address_line2": null,
    "is_default": true
  },
  {
    "script_address_id": 23,
    "user_id": 13,
    "recipient_name": "劉文彬",
    "phone": "0930-091-801",
    "city": "臺南市",
    "district": "東區",
    "postal_code": "701",
    "address_line1": "林森街11號",
    "address_line2": null,
    "is_default": true
  },
  {
    "script_address_id": 24,
    "user_id": 13,
    "recipient_name": "劉文彬",
    "phone": "0930-091-801",
    "city": "臺北市",
    "district": "士林區",
    "postal_code": "111",
    "address_line1": "永寧街33號",
    "address_line2": null,
    "is_default": false
  },
  {
    "script_address_id": 25,
    "user_id": 14,
    "recipient_name": "吳彥廷",
    "phone": "0996-821-216",
    "city": "新北市",
    "district": "永和區",
    "postal_code": "234",
    "address_line1": "文山街5段494號",
    "address_line2": null,
    "is_default": true
  },
  {
    "script_address_id": 26,
    "user_id": 14,
    "recipient_name": "吳彥廷",
    "phone": "0996-821-216",
    "city": "桃園市",
    "district": "桃園區",
    "postal_code": "330",
    "address_line1": "新店巷716號",
    "address_line2": null,
    "is_default": false
  },
  {
    "script_address_id": 27,
    "user_id": 15,
    "recipient_name": "李志豪",
    "phone": "0996-227-871",
    "city": "高雄市",
    "district": "左營區",
    "postal_code": "813",
    "address_line1": "東興路20號",
    "address_line2": null,
    "is_default": true
  },
  {
    "script_address_id": 28,
    "user_id": 15,
    "recipient_name": "李志豪",
    "phone": "0996-227-871",
    "city": "臺北市",
    "district": "信義區",
    "postal_code": "110",
    "address_line1": "永和路7段7號",
    "address_line2": null,
    "is_default": false
  },
  {
    "script_address_id": 29,
    "user_id": 15,
    "recipient_name": "李志豪",
    "phone": "0996-227-871",
    "city": "臺南市",
    "district": "東區",
    "postal_code": "701",
    "address_line1": "中正路6段96號",
    "address_line2": null,
    "is_default": false
  },
  {
    "script_address_id": 30,
    "user_id": 16,
    "recipient_name": "許志豪",
    "phone": "0987-009-408",
    "city": "新北市",
    "district": "淡水區",
    "postal_code": "251",
    "address_line1": "福安巷65號",
    "address_line2": null,
    "is_default": true
  },
  {
    "script_address_id": 31,
    "user_id": 16,
    "recipient_name": "許志豪",
    "phone": "0987-009-408",
    "city": "臺中市",
    "district": "西屯區",
    "postal_code": "407",
    "address_line1": "民有路88號",
    "address_line2": null,
    "is_default": false
  },
  {
    "script_address_id": 32,
    "user_id": 17,
    "recipient_name": "張素貞",
    "phone": "0954-410-691",
    "city": "新北市",
    "district": "板橋區",
    "postal_code": "220",
    "address_line1": "北投巷473號",
    "address_line2": null,
    "is_default": true
  },
  {
    "script_address_id": 33,
    "user_id": 18,
    "recipient_name": "柯哲維",
    "phone": "0922-921-409",
    "city": "臺南市",
    "district": "東區",
    "postal_code": "701",
    "address_line1": "大勇路9段53號",
    "address_line2": null,
    "is_default": true
  },
  {
    "script_address_id": 34,
    "user_id": 18,
    "recipient_name": "柯哲維",
    "phone": "0922-921-409",
    "city": "臺南市",
    "district": "東區",
    "postal_code": "701",
    "address_line1": "大同街7段28號",
    "address_line2": null,
    "is_default": false
  },
  {
    "script_address_id": 35,
    "user_id": 18,
    "recipient_name": "柯哲維",
    "phone": "0922-921-409",
    "city": "臺北市",
    "district": "信義區",
    "postal_code": "110",
    "address_line1": "士林巷8段3號",
    "address_line2": null,
    "is_default": false
  },
  {
    "script_address_id": 36,
    "user_id": 19,
    "recipient_name": "黃志賢",
    "phone": "0951-080-188",
    "city": "桃園市",
    "district": "桃園區",
    "postal_code": "330",
    "address_line1": "公園路7號",
    "address_line2": null,
    "is_default": true
  },
  {
    "script_address_id": 37,
    "user_id": 19,
    "recipient_name": "黃志賢",
    "phone": "0951-080-188",
    "city": "臺北市",
    "district": "信義區",
    "postal_code": "110",
    "address_line1": "龍山寺巷577號",
    "address_line2": null,
    "is_default": false
  },
  {
    "script_address_id": 38,
    "user_id": 20,
    "recipient_name": "沈麗華",
    "phone": "0994-013-899",
    "city": "臺北市",
    "district": "大安區",
    "postal_code": "106",
    "address_line1": "平和巷201號",
    "address_line2": null,
    "is_default": true
  },
  {
    "script_address_id": 39,
    "user_id": 21,
    "recipient_name": "韓佳玲",
    "phone": "0951-998-781",
    "city": "桃園市",
    "district": "桃園區",
    "postal_code": "330",
    "address_line1": "福德巷6號",
    "address_line2": null,
    "is_default": true
  },
  {
    "script_address_id": 40,
    "user_id": 21,
    "recipient_name": "韓佳玲",
    "phone": "0951-998-781",
    "city": "臺南市",
    "district": "東區",
    "postal_code": "701",
    "address_line1": "萬隆街2號",
    "address_line2": null,
    "is_default": false
  },
  {
    "script_address_id": 41,
    "user_id": 22,
    "recipient_name": "郭麗玉",
    "phone": "0934-576-466",
    "city": "臺中市",
    "district": "西屯區",
    "postal_code": "407",
    "address_line1": "關渡街90號",
    "address_line2": null,
    "is_default": true
  },
  {
    "script_address_id": 42,
    "user_id": 22,
    "recipient_name": "郭麗玉",
    "phone": "0934-576-466",
    "city": "彰化縣",
    "district": "員林市",
    "postal_code": "510",
    "address_line1": "國凱八德街2號",
    "address_line2": null,
    "is_default": false
  },
  {
    "script_address_id": 43,
    "user_id": 23,
    "recipient_name": "劉淑玲",
    "phone": "0973-168-530",
    "city": "彰化縣",
    "district": "員林市",
    "postal_code": "510",
    "address_line1": "興街609號",
    "address_line2": null,
    "is_default": true
  },
  {
    "script_address_id": 44,
    "user_id": 23,
    "recipient_name": "劉淑玲",
    "phone": "0973-168-530",
    "city": "彰化縣",
    "district": "員林市",
    "postal_code": "510",
    "address_line1": "永和巷7段3號",
    "address_line2": null,
    "is_default": false
  },
  {
    "script_address_id": 45,
    "user_id": 24,
    "recipient_name": "李雅玲",
    "phone": "0989-894-540",
    "city": "臺南市",
    "district": "安平區",
    "postal_code": "708",
    "address_line1": "公園路359號",
    "address_line2": null,
    "is_default": true
  },
  {
    "script_address_id": 46,
    "user_id": 25,
    "recipient_name": "陳承翰",
    "phone": "0962-119-055",
    "city": "高雄市",
    "district": "左營區",
    "postal_code": "813",
    "address_line1": "民享街4段626號",
    "address_line2": null,
    "is_default": true
  },
  {
    "script_address_id": 47,
    "user_id": 25,
    "recipient_name": "陳承翰",
    "phone": "0962-119-055",
    "city": "臺北市",
    "district": "士林區",
    "postal_code": "111",
    "address_line1": "福安巷10號",
    "address_line2": null,
    "is_default": false
  },
  {
    "script_address_id": 48,
    "user_id": 26,
    "recipient_name": "石宇翔",
    "phone": "0997-040-262",
    "city": "桃園市",
    "district": "桃園區",
    "postal_code": "330",
    "address_line1": "淡水路107號",
    "address_line2": null,
    "is_default": true
  },
  {
    "script_address_id": 49,
    "user_id": 26,
    "recipient_name": "石宇翔",
    "phone": "0997-040-262",
    "city": "臺中市",
    "district": "北屯區",
    "postal_code": "406",
    "address_line1": "華興巷501號",
    "address_line2": null,
    "is_default": false
  },
  {
    "script_address_id": 50,
    "user_id": 27,
    "recipient_name": "陳承恩",
    "phone": "0902-294-129",
    "city": "臺南市",
    "district": "東區",
    "postal_code": "701",
    "address_line1": "公園路10號",
    "address_line2": null,
    "is_default": true
  },
  {
    "script_address_id": 51,
    "user_id": 27,
    "recipient_name": "陳承恩",
    "phone": "0902-294-129",
    "city": "新北市",
    "district": "淡水區",
    "postal_code": "251",
    "address_line1": "華興路3號",
    "address_line2": "8樓",
    "is_default": false
  },
  {
    "script_address_id": 52,
    "user_id": 28,
    "recipient_name": "涂文華",
    "phone": "0904-537-590",
    "city": "臺南市",
    "district": "安平區",
    "postal_code": "708",
    "address_line1": "大同巷38號",
    "address_line2": null,
    "is_default": true
  },
  {
    "script_address_id": 53,
    "user_id": 28,
    "recipient_name": "涂文華",
    "phone": "0904-537-590",
    "city": "桃園市",
    "district": "中壢區",
    "postal_code": "320",
    "address_line1": "大橋頭路8號",
    "address_line2": "之5",
    "is_default": false
  },
  {
    "script_address_id": 54,
    "user_id": 29,
    "recipient_name": "曾玉玲",
    "phone": "0929-043-285",
    "city": "臺中市",
    "district": "北屯區",
    "postal_code": "406",
    "address_line1": "和平巷8段871號",
    "address_line2": null,
    "is_default": true
  },
  {
    "script_address_id": 55,
    "user_id": 30,
    "recipient_name": "黃佳玲",
    "phone": "0951-618-722",
    "city": "桃園市",
    "district": "中壢區",
    "postal_code": "320",
    "address_line1": "大同巷65號",
    "address_line2": "9樓",
    "is_default": true
  },
  {
    "script_address_id": 56,
    "user_id": 30,
    "recipient_name": "黃佳玲",
    "phone": "0951-618-722",
    "city": "高雄市",
    "district": "苓雅區",
    "postal_code": "802",
    "address_line1": "光復巷1段27號",
    "address_line2": null,
    "is_default": false
  },
  {
    "script_address_id": 57,
    "user_id": 30,
    "recipient_name": "黃佳玲",
    "phone": "0951-618-722",
    "city": "臺北市",
    "district": "大安區",
    "postal_code": "106",
    "address_line1": "四維路48號",
    "address_line2": null,
    "is_default": false
  },
  {
    "script_address_id": 58,
    "user_id": 31,
    "recipient_name": "林碧珠",
    "phone": "0989-383-940",
    "city": "桃園市",
    "district": "中壢區",
    "postal_code": "320",
    "address_line1": "長安路6段180號",
    "address_line2": "之1",
    "is_default": true
  },
  {
    "script_address_id": 59,
    "user_id": 32,
    "recipient_name": "戴淑惠",
    "phone": "0958-618-307",
    "city": "臺南市",
    "district": "安平區",
    "postal_code": "708",
    "address_line1": "大坪巷68號",
    "address_line2": null,
    "is_default": true
  },
  {
    "script_address_id": 60,
    "user_id": 32,
    "recipient_name": "戴淑惠",
    "phone": "0958-618-307",
    "city": "臺南市",
    "district": "東區",
    "postal_code": "701",
    "address_line1": "信義巷6號",
    "address_line2": null,
    "is_default": false
  },
  {
    "script_address_id": 61,
    "user_id": 33,
    "recipient_name": "吳麗華",
    "phone": "0926-219-999",
    "city": "臺中市",
    "district": "西屯區",
    "postal_code": "407",
    "address_line1": "自由巷52號",
    "address_line2": "之9",
    "is_default": true
  },
  {
    "script_address_id": 62,
    "user_id": 33,
    "recipient_name": "吳麗華",
    "phone": "0926-219-999",
    "city": "臺南市",
    "district": "東區",
    "postal_code": "701",
    "address_line1": "新生巷1號",
    "address_line2": null,
    "is_default": false
  },
  {
    "script_address_id": 63,
    "user_id": 33,
    "recipient_name": "吳麗華",
    "phone": "0926-219-999",
    "city": "新北市",
    "district": "板橋區",
    "postal_code": "220",
    "address_line1": "中興巷7號",
    "address_line2": "之6",
    "is_default": false
  },
  {
    "script_address_id": 64,
    "user_id": 34,
    "recipient_name": "洪文章",
    "phone": "0932-429-686",
    "city": "宜蘭縣",
    "district": "宜蘭市",
    "postal_code": "260",
    "address_line1": "新店巷62號",
    "address_line2": null,
    "is_default": true
  },
  {
    "script_address_id": 65,
    "user_id": 34,
    "recipient_name": "洪文章",
    "phone": "0932-429-686",
    "city": "臺北市",
    "district": "大安區",
    "postal_code": "106",
    "address_line1": "西門路73號",
    "address_line2": null,
    "is_default": false
  },
  {
    "script_address_id": 66,
    "user_id": 35,
    "recipient_name": "陳慧玲",
    "phone": "0980-006-885",
    "city": "臺中市",
    "district": "北屯區",
    "postal_code": "406",
    "address_line1": "福德巷9號",
    "address_line2": null,
    "is_default": true
  },
  {
    "script_address_id": 67,
    "user_id": 35,
    "recipient_name": "陳慧玲",
    "phone": "0980-006-885",
    "city": "臺中市",
    "district": "西屯區",
    "postal_code": "407",
    "address_line1": "中央路151號",
    "address_line2": "之2",
    "is_default": false
  },
  {
    "script_address_id": 68,
    "user_id": 35,
    "recipient_name": "陳慧玲",
    "phone": "0980-006-885",
    "city": "高雄市",
    "district": "左營區",
    "postal_code": "813",
    "address_line1": "小碧潭路2段99號",
    "address_line2": null,
    "is_default": false
  },
  {
    "script_address_id": 69,
    "user_id": 36,
    "recipient_name": "顏志明",
    "phone": "0976-309-755",
    "city": "桃園市",
    "district": "桃園區",
    "postal_code": "330",
    "address_line1": "民治巷4號",
    "address_line2": null,
    "is_default": true
  },
  {
    "script_address_id": 70,
    "user_id": 37,
    "recipient_name": "吳淑慧",
    "phone": "0995-808-498",
    "city": "高雄市",
    "district": "苓雅區",
    "postal_code": "802",
    "address_line1": "長春巷30號",
    "address_line2": null,
    "is_default": true
  },
  {
    "script_address_id": 71,
    "user_id": 38,
    "recipient_name": "呂榮華",
    "phone": "0969-838-912",
    "city": "臺中市",
    "district": "西屯區",
    "postal_code": "407",
    "address_line1": "水源街5段48號",
    "address_line2": null,
    "is_default": true
  },
  {
    "script_address_id": 72,
    "user_id": 38,
    "recipient_name": "呂榮華",
    "phone": "0969-838-912",
    "city": "臺中市",
    "district": "西屯區",
    "postal_code": "407",
    "address_line1": "育英路1段206號",
    "address_line2": null,
    "is_default": false
  },
  {
    "script_address_id": 73,
    "user_id": 38,
    "recipient_name": "呂榮華",
    "phone": "0969-838-912",
    "city": "高雄市",
    "district": "左營區",
    "postal_code": "813",
    "address_line1": "中央街1段2號",
    "address_line2": null,
    "is_default": false
  },
  {
    "script_address_id": 74,
    "user_id": 39,
    "recipient_name": "陳月娥",
    "phone": "0960-907-333",
    "city": "臺北市",
    "district": "士林區",
    "postal_code": "111",
    "address_line1": "關渡街60號",
    "address_line2": null,
    "is_default": true
  },
  {
    "script_address_id": 75,
    "user_id": 39,
    "recipient_name": "陳月娥",
    "phone": "0960-907-333",
    "city": "臺中市",
    "district": "西屯區",
    "postal_code": "407",
    "address_line1": "萬隆街5號",
    "address_line2": null,
    "is_default": false
  },
  {
    "script_address_id": 76,
    "user_id": 40,
    "recipient_name": "林鈺婷",
    "phone": "0972-835-433",
    "city": "臺中市",
    "district": "西屯區",
    "postal_code": "407",
    "address_line1": "紅樹林路40號",
    "address_line2": "之1",
    "is_default": true
  },
  {
    "script_address_id": 77,
    "user_id": 40,
    "recipient_name": "林鈺婷",
    "phone": "0972-835-433",
    "city": "臺中市",
    "district": "北屯區",
    "postal_code": "406",
    "address_line1": "中和巷273號",
    "address_line2": null,
    "is_default": false
  },
  {
    "script_address_id": 78,
    "user_id": 41,
    "recipient_name": "戴美慧",
    "phone": "0952-692-229",
    "city": "桃園市",
    "district": "中壢區",
    "postal_code": "320",
    "address_line1": "大坪巷56號",
    "address_line2": null,
    "is_default": true
  },
  {
    "script_address_id": 79,
    "user_id": 42,
    "recipient_name": "陳美鳳",
    "phone": "0985-731-818",
    "city": "新北市",
    "district": "板橋區",
    "postal_code": "220",
    "address_line1": "民族路4號",
    "address_line2": null,
    "is_default": true
  },
  {
    "script_address_id": 80,
    "user_id": 43,
    "recipient_name": "唐碧雲",
    "phone": "0906-001-578",
    "city": "臺中市",
    "district": "北屯區",
    "postal_code": "406",
    "address_line1": "長安街1號",
    "address_line2": null,
    "is_default": true
  },
  {
    "script_address_id": 81,
    "user_id": 43,
    "recipient_name": "唐碧雲",
    "phone": "0906-001-578",
    "city": "高雄市",
    "district": "苓雅區",
    "postal_code": "802",
    "address_line1": "雙連街5段332號",
    "address_line2": null,
    "is_default": false
  },
  {
    "script_address_id": 82,
    "user_id": 44,
    "recipient_name": "錢淑美",
    "phone": "0937-667-646",
    "city": "臺北市",
    "district": "大安區",
    "postal_code": "106",
    "address_line1": "土城路50號",
    "address_line2": null,
    "is_default": true
  },
  {
    "script_address_id": 83,
    "user_id": 45,
    "recipient_name": "陳明輝",
    "phone": "0982-708-296",
    "city": "臺北市",
    "district": "士林區",
    "postal_code": "111",
    "address_line1": "中和路635號",
    "address_line2": null,
    "is_default": true
  },
  {
    "script_address_id": 84,
    "user_id": 45,
    "recipient_name": "陳明輝",
    "phone": "0982-708-296",
    "city": "臺北市",
    "district": "信義區",
    "postal_code": "110",
    "address_line1": "石牌巷212號",
    "address_line2": null,
    "is_default": false
  },
  {
    "script_address_id": 85,
    "user_id": 46,
    "recipient_name": "黃秀鳳",
    "phone": "0960-563-434",
    "city": "桃園市",
    "district": "中壢區",
    "postal_code": "320",
    "address_line1": "仁愛路1號",
    "address_line2": null,
    "is_default": true
  },
  {
    "script_address_id": 86,
    "user_id": 47,
    "recipient_name": "吳雅婷",
    "phone": "0952-848-671",
    "city": "臺中市",
    "district": "北屯區",
    "postal_code": "406",
    "address_line1": "育英巷1段95號",
    "address_line2": null,
    "is_default": true
  },
  {
    "script_address_id": 87,
    "user_id": 47,
    "recipient_name": "吳雅婷",
    "phone": "0952-848-671",
    "city": "臺南市",
    "district": "東區",
    "postal_code": "701",
    "address_line1": "中山巷5號",
    "address_line2": "之3",
    "is_default": false
  },
  {
    "script_address_id": 88,
    "user_id": 48,
    "recipient_name": "吳世昌",
    "phone": "0975-636-295",
    "city": "高雄市",
    "district": "苓雅區",
    "postal_code": "802",
    "address_line1": "自立巷65號",
    "address_line2": null,
    "is_default": true
  },
  {
    "script_address_id": 89,
    "user_id": 48,
    "recipient_name": "吳世昌",
    "phone": "0975-636-295",
    "city": "桃園市",
    "district": "桃園區",
    "postal_code": "330",
    "address_line1": "太平街1段3號",
    "address_line2": null,
    "is_default": false
  },
  {
    "script_address_id": 90,
    "user_id": 48,
    "recipient_name": "吳世昌",
    "phone": "0975-636-295",
    "city": "高雄市",
    "district": "左營區",
    "postal_code": "813",
    "address_line1": "中華巷891號",
    "address_line2": "之5",
    "is_default": false
  },
  {
    "script_address_id": 91,
    "user_id": 49,
    "recipient_name": "施美玉",
    "phone": "0930-675-780",
    "city": "臺北市",
    "district": "士林區",
    "postal_code": "111",
    "address_line1": "西門路978號",
    "address_line2": null,
    "is_default": true
  },
  {
    "script_address_id": 92,
    "user_id": 50,
    "recipient_name": "黃仁傑",
    "phone": "0901-587-569",
    "city": "彰化縣",
    "district": "員林市",
    "postal_code": "510",
    "address_line1": "大坪巷17號",
    "address_line2": null,
    "is_default": true
  }
]